0 COSMOS 945
1 10291U 77079G   13282.45580723  .00000017  00000-0  22189-3 0  8412
2 10291 074.0227 091.8337 0018539 343.6479 080.3253 12.47184317644935
0 COSMOS 945
1 10291U 77079G   13284.53944861 -.00000007  00000-0  61473-4 0  8421
2 10291 074.0229 089.0779 0018572 340.6618 075.4628 12.47184701645192
0 COSMOS 945
1 10291U 77079G   13286.54757365 -.00000035  00000-0 -13360-3 0  8439
2 10291 074.0234 086.4221 0018600 337.7236 091.6090 12.47184955645448
0 COSMOS 945
1 10291U 77079G   13288.79242139 -.00000038  00000-0 -15080-3 0  8441
2 10291 074.0240 083.4533 0018655 334.3189 090.7234 12.47184850645723
0 COSMOS 945
1 10291U 77079G   13291.12966638 -.00000017  00000-0 -72920-5 0  8455
2 10291 074.0246 080.3626 0018701 330.8747 144.5905 12.47184614646015
0 COSMOS 945
1 10291U 77079G   13293.44212872  .00000007  00000-0  15650-3 0  8469
2 10291 074.0249 077.3047 0018739 327.5156 087.1367 12.47184486646302
0 COSMOS 945
1 10291U 77079G   13295.44762398  .00000005  00000-0  14188-3 0  8478
2 10291 074.0251 074.6527 0018769 324.5422 091.5139 12.47184562646552
